SAUDISAT 1C (SO-50)     
1 27607U 02058C   26162.55839360  .00000916  00000+0  12536-3 0  9998
2 27607  64.5506 146.4007 0075403 263.5157  95.7360 14.83034770263626
SAUDISAT 2              
1 28371U 04025F   26162.60250800  .00000237  00000+0  64135-4 0  9994
2 28371  98.5507 162.4401 0023821 316.1423  43.7882 14.56680728164933
SAUDISAT 3              
1 31118U 07012B   26162.41049400  .00000200  00000+0  40515-4 0  9993
2 31118  98.1454 112.8073 0013380 243.7918 116.1914 14.71422228 26899
PISAT                   
1 41784U 16059B   26162.55851390  .00000816  00000+0  14650-3 0  9991
2 41784  97.8179 163.2532 0027956 221.2985 138.6107 14.68974238518919
FLYING LAPTOP           
1 42831U 17042G   26162.65287334  .00003083  00000+0  24442-3 0  9999
2 42831  97.4660 318.3997 0019326 139.6985 220.5677 15.01109878485628
SALSAT                  
1 46495U 20068K   26162.58556221  .00006923  00000+0  24314-3 0  9991
2 46495  97.8849 165.3093 0008525 331.4069  28.6701 15.29719030314502
